CASSIOPE                
1 39265U 13055A   21051.45528451  .00003844  00000-0  10860-3 0  9999
2 39265  80.9663  54.8415 0651757 297.1048  56.5087 14.31327249383234
ZACUBE-1 (TSHEPISOSAT)  
1 39417U 13066B   21050.79246479  .00000196  00000-0  30814-4 0  9992
2 39417  97.5835  41.2852 0058489 185.4288 174.6298 14.81429772391651
CINEMA-3 (KHUSAT-2)     
1 39426U 13066L   21051.15635797  .00000153  00000-0  31823-4 0  9992
2 39426  97.7407   9.0015 0103822 341.9742  17.7793 14.69629148388699
TRITON-1                
1 39427U 13066M   21051.09535531  .00000277  00000-0  51909-4 0  9995
2 39427  97.7611   4.7591 0113748   6.9002 353.3738 14.68154067388187
DELFI-N3XT              
1 39428U 13066N   21050.83718122  .00000523  00000-0  90216-4 0  9994
2 39428  97.7666   2.9502 0120706  20.3381 340.2572 14.67873243387893
GOMX-1                  
1 39430U 13066Q   21051.44247282  .00000197  00000-0  44199-4 0  9995
2 39430  97.8107 341.2583 0151744 123.1133 238.4740 14.59536192385970
BRITE-PL1 (LEM)         
1 39431U 13066R   21050.63440235  .00000026  00000-0  16542-4 0  9991
2 39431  97.7690 300.4462 0200804 283.2084  74.6779 14.47116937382736
ICUBE-1                 
1 39432U 13066S   21051.50503098  .00000246  00000-0  30124-4 0  9992
2 39432  97.4845  75.6535 0033341  74.1169 286.3721 14.90768480394094
HUMSAT-D                
1 39433U 13066T   21051.14879428  .00000554  00000-0  58387-4 0  9999
2 39433  97.4828  81.9516 0031673  56.5151 303.9089 14.92741271394427
VELOX-PII               
1 39438U 13066Y   21050.65099189  .00000158  00000-0  27933-4 0  9990
2 39438  97.6296  31.6442 0069220 228.2734 131.2545 14.78149798390804
FIRST-MOVE              
1 39439U 13066Z   21051.44932858  .00000424  00000-0  57389-4 0  9992
2 39439  97.5898  43.0960 0064732 181.8394 178.2592 14.82434787391706
CUBEBUG-2 (LO-74)       
1 39440U 13066AA  21051.39170937  .00000220  00000-0  37553-4 0  9995
2 39440  97.6622  26.6147 0078452 255.1768 104.0742 14.76165146390359
NEE-02 KRYSAOR          
1 39441U 13066AB  21050.62404940  .00000136  00000-0  26671-4 0  9990
2 39441  97.6710  23.2784 0080030 268.2581  90.9461 14.75125611390006
FUNCUBE-1 (AO-73)       
1 39444U 13066AE  21050.44292172  .00000250  00000-0  36718-4 0  9995
2 39444  97.5752  43.2910 0057784 177.5263 182.6248 14.82317719389950
HINCUBE                 
1 39445U 13066AF  21051.45015024  .00000234  00000-0  34928-4 0  9990
2 39445  97.5767  44.1022 0057851 175.9215 184.2483 14.82152152390235
UWE-3                   
1 39446U 13066AG  21051.22665670  .00000215  00000-0  35096-4 0  9990
2 39446  97.6247  33.5034 0068726 220.6983 138.9083 14.78698720389778
AIST-1 (RS-41)          
1 39492U 13078C   21051.34501299  .00000195  00000-0  18619-4 0  9992
2 39492  82.4224 337.6881 0018240 263.7882  96.1256 14.87990063388081
SPROUT                  
1 39770U 14029E   21051.56177224  .00000974  00000-0  11171-3 0  9999
2 39770  97.9060 163.0417 0007975 227.7841 132.2683 14.88187060365956
UNISAT-6                
1 40012U 14033C   21050.81219812  .00000173  00000-0  33078-4 0  9994
2 40012  97.6859 259.3390 0056792 281.1250  78.3577 14.74243476358861
BUGSAT-1 (TITA)         
1 40014U 14033E   21050.88068896  .00000734  00000-0  71169-4 0  9993
2 40014  98.0978  26.3463 0031092 191.1716 168.8830 14.95643134363991
DUCHIFAT-1              
1 40021U 14033M   21050.91200845  .00000570  00000-0  63216-4 0  9999
2 40021  97.9629 349.9438 0012450 185.7588 174.3489 14.91184984362764
NANOSATC-BR1            
1 40024U 14033Q   21051.07595552  .00000356  00000-0  42517-4 0  9995
2 40024  97.9440 345.6258 0011678 190.0843 170.0142 14.90308312362632
QB50P1                  
1 40025U 14033R   21051.05109858  .00000244  00000-0  31687-4 0  9996
2 40025  97.9278 341.4822 0011779 198.6893 161.3893 14.89332332362457
DTUSAT-2                
1 40030U 14033W   21051.01871997  .00000280  00000-0  35884-4 0  9991
2 40030  97.9125 338.3303 0011306 194.7710 165.3178 14.88893542362357
QB50P2                  
1 40032U 14033Y   21051.04565473  .00000249  00000-0  32621-4 0  9996
2 40032  97.9134 338.3620 0011249 195.4672 164.6202 14.88848073362340
POLYITAN-1              
1 40042U 14033AJ  21050.54952091  .00000440  00000-0  52661-4 0  9996
2 40042  97.9367 341.6874 0014075 192.3685 167.7189 14.89117878362270
TIGRISAT                
1 40043U 14033AK  21051.32932425  .00000142  00000-0  28333-4 0  9991
2 40043  97.6835 261.2202 0058435 277.4466  82.0107 14.74480403358871
AISAT                   
1 40054U 14034B   21050.84311507  .00000392  00000-0  61624-4 0  9999
2 40054  98.3039 200.1274 0013672  63.7781 296.4832 14.78288182358159
CANX-4                  
1 40055U 14034C   21051.13167502  .00000103  00000-0  23315-4 0  9992
2 40055  98.2853 189.5077 0015509  93.8602 266.4379 14.75010732357648
CANX-5                  
1 40056U 14034D   21051.13579691  .00000101  00000-0  23084-4 0  9990
2 40056  98.2853 189.5000 0015532  94.1158 266.1826 14.75001626357647
VELOX-I                 
1 40057U 14034E   21051.42361280  .00000297  00000-0  48727-4 0  9993
2 40057  98.3093 201.7222 0012098  74.9622 285.2929 14.78069021358254
METEOR-M 2              
1 40069U 14037A   21051.38281852 -.00000029  00000-0  59972-5 0  9999
2 40069  98.4755  85.1673 0004400 285.8663  74.2031 14.20681112343413
DX1                     
1 40071U 14037C   21051.40328178  .00000103  00000-0  20669-4 0  9990
2 40071  98.4583 249.5888 0009668  66.1982 294.0232 14.81453903357966
UKUBE-1                 
1 40074U 14037F   21051.30044076  .00000392  00000-0  53780-4 0  9994
2 40074  98.4409 260.2975 0005139  52.2437 307.9264 14.84458400358525
FIREBIRD 3              
1 40377U 15003B   21050.74122272  .00003855  00000-0  14524-3 0  9995
2 40377  99.0825 167.5458 0119801 206.8435 152.6565 15.21457580334895
FIREBIRD 4              
1 40378U 15003C   21051.31325107  .00004051  00000-0  15208-3 0  9991
2 40378  99.0827 168.3578 0119937 204.7761 154.7682 15.21503574334987
GRIFEX                  
1 40379U 15003D   21051.51594354  .00002395  00000-0  10116-3 0  9998
2 40379  99.0820 158.8950 0129375 234.2068 124.7080 15.17384885334452
CP10 (EXOCUBE)          
1 40380U 15003E   21051.20490655  .00001327  00000-0  61263-4 0  9999
2 40380  99.0861 153.4091 0134635 252.9404 105.7037 15.15163994334064
DEORBITSAIL             
1 40719U 15032E   21051.43313764  .00000403  00000-0  63832-4 0  9995
2 40719  97.8437 299.5787 0017294 123.1239 237.1634 14.77240133302702
NUDT-PHONESAT           
1 40900U 15049B   21051.54166216  .00002952  00000-0  11917-3 0  9992
2 40900  97.4265  66.4622 0012102 182.8544 332.7352 15.25520675300996
XW-2A                   
1 40903U 15049E   21051.52300205  .00003028  00000-0  67200-4 0  9993
2 40903  97.2540 106.3182 0014535  83.2112  22.6027 15.44415548304749
XW-2C                   
1 40906U 15049H   21051.51767840  .00000886  00000-0  48896-4 0  9996
2 40906  97.4840  55.3607 0013373 228.7752 230.1807 15.16491254299840
XW-2D                   
1 40907U 15049J   21051.47926241  .00001042  00000-0  56405-4 0  9994
2 40907  97.4841  55.0809 0012684 225.1831 286.8137 15.16778728299866
LILACSAT-2              
1 40908U 15049K   21051.52938528  .00000718  00000-0  42783-4 0  9995
2 40908  97.5015  53.1419 0014243 241.0072 217.9989 15.14293519299536
XW-2E                   
1 40909U 15049L   21051.54326574  .00001414  00000-0  70524-4 0  9998
2 40909  97.4673  59.0005 0012401 211.5550 247.6453 15.19117007300181
XW-2F                   
1 40910U 15049M   21051.51868346  .00001234  00000-0  62839-4 0  9995
2 40910  97.4722  58.0504 0013586 211.6449 303.9233 15.18620563299975
XW-2B                   
1 40911U 15049N   21051.53204899  .00001071  00000-0  58049-4 0  9992
2 40911  97.4842  55.8276 0012513 226.4694 232.7328 15.16699314299764
KAITUO 1B               
1 40912U 15049P   21051.51077602  .00001430  00000-0  67310-4 0  9991
2 40912  97.4489  62.3792 0014435 184.5922 326.5573 15.21101922300419
TIANWANG 1C (TW-1C)     
1 40926U 15051B   21051.29861338  .00772588  31143-3  10327-2 0  9999
2 40926  97.0283 113.8475 0004547 216.6034 210.2135 16.06661317306069
TIANWANG 1B (TW-1B)     
1 40927U 15051C   21051.44089356  .00133026  00000-0  51726-3 0  9991
2 40927  97.0473 110.7058 0003240 208.3011 279.9910 15.86775617305749
TIANWANG 1A (TW-1A)     
1 40928U 15051D   21051.52809579  .00004529  00000-0  99196-4 0  9997
2 40928  97.0892  79.2647 0010012  13.2179 142.1302 15.44560858303636
LAPAN-A2                
1 40931U 15052B   21051.36111302  .00000724  00000-0  11700-4 0  9992
2 40931   5.9997   7.4976 0012756 187.3484 172.6579 14.76663115291961
LQSAT                   
1 40958U 15057A   21051.44663451  .00000020  00000-0  10522-4 0  9992
2 40958  97.8202 112.2885 0019592  74.3842 285.9526 14.73156221289016
ATHENOXAT 1             
1 41168U 15077C   21051.33542824  .00002726  00000-0  10460-3 0  9991
2 41168  14.9888  41.7553 0011250 341.0047 235.3769 15.15197943286986
GALASSIA                
1 41170U 15077E   21051.16622411  .00002199  00000-0  76687-4 0  9994
2 41170  14.9897  34.0336 0012236   6.9738 353.0753 15.15454478287039
VELOX-II                
1 41171U 15077F   21050.45014548  .00001721  00000-0  58737-4 0  9998
2 41171  14.9917  92.4564 0008565 235.8616 124.0892 15.12226458286426
CHUBUSAT-2              
1 41338U 16012B   21051.12156471  .00000353  00000-0  20658-4 0  9991
2 41338  31.0021 211.9571 0013583  50.1201 310.0627 15.00443211274961
CHUBUSAT-3              
1 41339U 16012C   21051.55546319  .00000378  00000-0  22491-4 0  9997
2 41339  31.0106 206.5485 0013447  61.7344 298.4665 15.00598124275028
HORYU-4                 
1 41340U 16012D   21050.77948309  .00000545  00000-0  34232-4 0  9999
2 41340  31.0041 196.4747 0013623  83.8165 276.4022 15.01746087275081
